start=new Date('2023-05-18T00:00:00.000Z').valueOf();
sats=[{"MEAN_MOTION":"15.06400206","MEAN_MOTION_DOT":"0.00003632","RCS_SIZE":"LARGE","DECAY_DATE":null,"RA_OF_ASC_NODE":"196.1596","FILE":"3910633","LAUNCH_DATE":"2020-01-29","CLASSIFICATION_TYPE":"U","SITE":"AFETR","PERIOD":"95.592","MEAN_MOTION_DDOT":"0.0000000000000","GP_ID":"232039981","OBJECT_NAME":"STARLINK-1168","TIME_SYSTEM":"UTC","PERIAPSIS":"546.434","OBJECT_TYPE":"PAYLOAD","TLE_LINE2":"2 45072  53.0525 196.1596 0001125  95.5226 264.5891 15.06400206181970","SEMIMAJOR_AXIS":"6925.348","OBJECT_ID":"2020-006AE","INCLINATION":"53.0525","ECCENTRICITY":"0.00011250","ARG_OF_PERICENTER":"95.5226","COUNTRY_CODE":"US","CENTER_NAME":"EARTH","MEAN_ANOMALY":"264.5891","REV_AT_EPOCH":"18197","MEAN_ELEMENT_THEORY":"SGP4","EPOCH":"2023-05-17T21:01:26.076864","EPHEMERIS_TYPE":"0","TLE_LINE1":"1 45072U 20006AE  23137.87599626  .00003632  00000-0  26258-3 0  9994","BSTAR":"0.00026258000000","REF_FRAME":"TEME","NORAD_CAT_ID":"45072","APOAPSIS":"547.992","ELEMENT_SET_NO":"999"},{"ELEMENT_SET_NO":"999","APOAPSIS":"548.285","BSTAR":"0.00020602000000","TLE_LINE1":"1 45073U 20006AF  23137.90179546  .00002790  00000-0  20602-3 0  9995","EPOCH":"2023-05-17T21:38:35.127744","EPHEMERIS_TYPE":"0","REF_FRAME":"TEME","NORAD_CAT_ID":"45073","MEAN_ELEMENT_THEORY":"SGP4","MEAN_ANOMALY":"299.7892","REV_AT_EPOCH":"18197","CENTER_NAME":"EARTH","ECCENTRICITY":"0.00016340","INCLINATION":"53.0535","ARG_OF_PERICENTER":"60.3259","COUNTRY_CODE":"US","OBJECT_ID":"2020-006AF","TLE_LINE2":"2 45073  53.0535 196.0533 0001634  60.3259 299.7892 15.06419733181979","SEMIMAJOR_AXIS":"6925.288","PERIAPSIS":"546.021","TIME_SYSTEM":"UTC","OBJECT_NAME":"STARLINK-1170","OBJECT_TYPE":"PAYLOAD","PERIOD":"95.591","MEAN_MOTION_DDOT":"0.0000000000000","GP_ID":"232040231","CLASSIFICATION_TYPE":"U","SITE":"AFETR","LAUNCH_DATE":"2020-01-29","FILE":"3910633","RA_OF_ASC_NODE":"196.0533","DECAY_DATE":null,"RCS_SIZE":"LARGE","MEAN_MOTION_DOT":"0.00002790","MEAN_MOTION":"15.06419733"},{"LAUNCH_DATE":"2020-01-29","SITE":"AFETR","CLASSIFICATION_TYPE":"U","PERIOD":"95.593","MEAN_MOTION_DDOT":"0.0000000000000","GP_ID":"232040483","MEAN_MOTION":"15.06392632","MEAN_MOTION_DOT":"0.00002989","DECAY_DATE":null,"RCS_SIZE":"LARGE","RA_OF_ASC_NODE":"196.1088","FILE":"3910633","MEAN_ELEMENT_THEORY":"SGP4","EPHEMERIS_TYPE":"0","EPOCH":"2023-05-17T21:17:21.695424","BSTAR":"0.00021949000000","TLE_LINE1":"1 45074U 20006AG  23137.88705666  .00002989  00000-0  21949-3 0  9996","NORAD_CAT_ID":"45074","REF_FRAME":"TEME","APOAPSIS":"548.036","ELEMENT_SET_NO":"999","OBJECT_NAME":"STARLINK-1172","PERIAPSIS":"546.436","TIME_SYSTEM":"UTC","OBJECT_TYPE":"PAYLOAD","TLE_LINE2":"2 45074  53.0520 196.1088 0001155  82.8548 277.2572 15.06392632181972","SEMIMAJOR_AXIS":"6925.371","OBJECT_ID":"2020-006AG","INCLINATION":"53.0520","ECCENTRICITY":"0.00011550","ARG_OF_PERICENTER":"82.8548","COUNTRY_CODE":"US","CENTER_NAME":"EARTH","REV_AT_EPOCH":"18197","MEAN_ANOMALY":"277.2572"},{"CENTER_NAME":"EARTH","MEAN_ANOMALY":"249.1857","REV_AT_EPOCH":"18197","INCLINATION":"53.0534","ECCENTRICITY":"0.00008130","ARG_OF_PERICENTER":"110.9219","COUNTRY_CODE":"US","SEMIMAJOR_AXIS":"6925.313","TLE_LINE2":"2 45075  53.0534 196.2594 0000813 110.9219 249.1857 15.06411506181975","OBJECT_ID":"2020-006AH","OBJECT_NAME":"STARLINK-1174","PERIAPSIS":"546.615","TIME_SYSTEM":"UTC","OBJECT_TYPE":"PAYLOAD","ELEMENT_SET_NO":"999","APOAPSIS":"547.741","EPOCH":"2023-05-17T20:29:34.730016","EPHEMERIS_TYPE":"0","TLE_LINE1":"1 45075U 20006AH  23137.85387419  .00006045  00000-0  42421-3 0  9991","BSTAR":"0.00042421000000","NORAD_CAT_ID":"45075","REF_FRAME":"TEME","MEAN_ELEMENT_THEORY":"SGP4","FILE":"3910633","RCS_SIZE":"LARGE","DECAY_DATE":null,"RA_OF_ASC_NODE":"196.2594","MEAN_MOTION_DOT":"0.00006045","MEAN_MOTION":"15.06411506","PERIOD":"95.591","MEAN_MOTION_DDOT":"0.0000000000000","GP_ID":"232041232","SITE":"AFETR","CLASSIFICATION_TYPE":"U","LAUNCH_DATE":"2020-01-29"},{"MEAN_ELEMENT_THEORY":"SGP4","NORAD_CAT_ID":"45076","REF_FRAME":"TEME","TLE_LINE1":"1 45076U 20006AJ  23137.86031844  .00002627  00000-0  19526-3 0  9993","BSTAR":"0.00019526000000","EPHEMERIS_TYPE":"0","EPOCH":"2023-05-17T20:38:51.513216","APOAPSIS":"547.959","ELEMENT_SET_NO":"999","OBJECT_TYPE":"PAYLOAD","PERIAPSIS":"546.529","TIME_SYSTEM":"UTC","OBJECT_NAME":"STARLINK-1180","OBJECT_ID":"2020-006AJ","SEMIMAJOR_AXIS":"6925.379","TLE_LINE2":"2 45076  53.0534 196.2231 0001032  92.9433 267.1674 15.06390053181975","ARG_OF_PERICENTER":"92.9433","COUNTRY_CODE":"US","ECCENTRICITY":"0.00010320","INCLINATION":"53.0534","MEAN_ANOMALY":"267.1674","REV_AT_EPOCH":"18197","CENTER_NAME":"EARTH","LAUNCH_DATE":"2020-01-29","CLASSIFICATION_TYPE":"U","SITE":"AFETR","GP_ID":"232039483","MEAN_MOTION_DDOT":"0.0000000000000","PERIOD":"95.593","MEAN_MOTION":"15.06390053","MEAN_MOTION_DOT":"0.00002627","RA_OF_ASC_NODE":"196.2231","RCS_SIZE":"LARGE","DECAY_DATE":null,"FILE":"3910633"},{"CLASSIFICATION_TYPE":"U","SITE":"AFETR","MEAN_MOTION_DDOT":"0.0000000000000","GP_ID":"232039732","PERIOD":"95.592","LAUNCH_DATE":"2020-01-29","DECAY_DATE":null,"RCS_SIZE":"LARGE","RA_OF_ASC_NODE":"196.1427","FILE":"3910633","MEAN_MOTION":"15.06404089","MEAN_MOTION_DOT":"0.00001543","APOAPSIS":"548.002","ELEMENT_SET_NO":"999","MEAN_ELEMENT_THEORY":"SGP4","REF_FRAME":"TEME","NORAD_CAT_ID":"45078","EPHEMERIS_TYPE":"0","EPOCH":"2023-05-17T21:06:44.856576","BSTAR":"0.00012244000000","TLE_LINE1":"1 45078U 20006AL  23137.87968584  .00001543  00000-0  12244-3 0  9992","ARG_OF_PERICENTER":"78.5068","COUNTRY_CODE":"US","INCLINATION":"53.0519","ECCENTRICITY":"0.00011560","CENTER_NAME":"EARTH","REV_AT_EPOCH":"18196","MEAN_ANOMALY":"281.6051","OBJECT_TYPE":"PAYLOAD","OBJECT_NAME":"STARLINK-1177","PERIAPSIS":"546.400","TIME_SYSTEM":"UTC","SEMIMAJOR_AXIS":"6925.336","TLE_LINE2":"2 45078  53.0519 196.1427 0001156  78.5068 281.6051 15.06404089181961","OBJECT_ID":"2020-006AL"},{"CLASSIFICATION_TYPE":"U","SITE":"AFETR","PERIOD":"95.592","GP_ID":"232040982","MEAN_MOTION_DDOT":"0.0000000000000","LAUNCH_DATE":"2020-01-29","RA_OF_ASC_NODE":"196.2390","RCS_SIZE":"LARGE","DECAY_DATE":null,"FILE":"3910633","MEAN_MOTION":"15.06402042","MEAN_MOTION_DOT":"0.00003442","APOAPSIS":"547.928","ELEMENT_SET_NO":"999","MEAN_ELEMENT_THEORY":"SGP4","BSTAR":"0.00024985000000","TLE_LINE1":"1 45079U 20006AM  23137.85662058  .00003442  00000-0  24985-3 0  9993","EPOCH":"2023-05-17T20:33:32.018112","EPHEMERIS_TYPE":"0","REF_FRAME":"TEME","NORAD_CAT_ID":"45079","ECCENTRICITY":"0.00010410","INCLINATION":"53.0526","COUNTRY_CODE":"US","ARG_OF_PERICENTER":"83.4892","MEAN_ANOMALY":"276.6216","REV_AT_EPOCH":"18196","CENTER_NAME":"EARTH","TIME_SYSTEM":"UTC","PERIAPSIS":"546.486","OBJECT_NAME":"STARLINK-1149","OBJECT_TYPE":"PAYLOAD","OBJECT_ID":"2020-006AM","SEMIMAJOR_AXIS":"6925.342","TLE_LINE2":"2 45079  53.0526 196.2390 0001041  83.4892 276.6216 15.06402042181967"},{"SITE":"AFETR","CLASSIFICATION_TYPE":"U","PERIOD":"95.591","GP_ID":"232040733","MEAN_MOTION_DDOT":"0.0000000000000","LAUNCH_DATE":"2020-01-29","RCS_SIZE":"LARGE","DECAY_DATE":null,"RA_OF_ASC_NODE":"196.2119","FILE":"3910633","MEAN_MOTION":"15.06415697","MEAN_MOTION_DOT":"0.00002502","APOAPSIS":"547.972","ELEMENT_SET_NO":"999","MEAN_ELEMENT_THEORY":"SGP4","EPOCH":"2023-05-17T20:45:29.155392","EPHEMERIS_TYPE":"0","TLE_LINE1":"1 45080U 20006AN  23137.86492078  .00002502  00000-0  18671-3 0  9990","BSTAR":"0.00018671000000","NORAD_CAT_ID":"45080","REF_FRAME":"TEME","INCLINATION":"53.0532","ECCENTRICITY":"0.00011650","COUNTRY_CODE":"US","ARG_OF_PERICENTER":"95.0801","CENTER_NAME":"EARTH","MEAN_ANOMALY":"265.0320","REV_AT_EPOCH":"18197","OBJECT_NAME":"STARLINK-1153","TIME_SYSTEM":"UTC","PERIAPSIS":"546.359","OBJECT_TYPE":"PAYLOAD","SEMIMAJOR_AXIS":"6925.300","TLE_LINE2":"2 45080  53.0532 196.2119 0001165  95.0801 265.0320 15.06415697181970","OBJECT_ID":"2020-006AN"},{"OBJECT_NAME":"STARLINK-1151","TIME_SYSTEM":"UTC","PERIAPSIS":"546.373","OBJECT_TYPE":"PAYLOAD","SEMIMAJOR_AXIS":"6925.311","TLE_LINE2":"2 45081  53.0532 197.5007 0001160  85.4581 274.6540 15.06412305181933","OBJECT_ID":"2020-006AP","INCLINATION":"53.0532","ECCENTRICITY":"0.00011600","ARG_OF_PERICENTER":"85.4581","COUNTRY_CODE":"US","CENTER_NAME":"EARTH","MEAN_ANOMALY":"274.6540","REV_AT_EPOCH":"18193","MEAN_ELEMENT_THEORY":"SGP4","EPHEMERIS_TYPE":"0","EPOCH":"2023-05-17T13:50:08.506176","BSTAR":"0.00049879000000","TLE_LINE1":"1 45081U 20006AP  23137.57648734  .00007158  00000-0  49879-3 0  9997","NORAD_CAT_ID":"45081","REF_FRAME":"TEME","APOAPSIS":"547.979","ELEMENT_SET_NO":"999","MEAN_MOTION":"15.06412305","MEAN_MOTION_DOT":"0.00007158","DECAY_DATE":null,"RCS_SIZE":"LARGE","RA_OF_ASC_NODE":"197.5007","FILE":"3910633","LAUNCH_DATE":"2020-01-29","SITE":"AFETR","CLASSIFICATION_TYPE":"U","PERIOD":"95.591","GP_ID":"232039982","MEAN_MOTION_DDOT":"0.0000000000000"},{"RCS_SIZE":"LARGE","DECAY_DATE":null,"RA_OF_ASC_NODE":"196.0586","FILE":"3910633","MEAN_MOTION":"15.06398205","MEAN_MOTION_DOT":"0.00005442","CLASSIFICATION_TYPE":"U","SITE":"AFETR","MEAN_MOTION_DDOT":"0.0000000000000","GP_ID":"232040232","PERIOD":"95.592","LAUNCH_DATE":"2020-01-29","COUNTRY_CODE":"US","ARG_OF_PERICENTER":"69.2867","INCLINATION":"53.0531","ECCENTRICITY":"0.00011830","CENTER_NAME":"EARTH","REV_AT_EPOCH":"18197","MEAN_ANOMALY":"290.8249","OBJECT_TYPE":"PAYLOAD","OBJECT_NAME":"STARLINK-1160","TIME_SYSTEM":"UTC","PERIAPSIS":"546.400","SEMIMAJOR_AXIS":"6925.354","TLE_LINE2":"2 45082  53.0531 196.0586 0001183  69.2867 290.8249 15.06398205181973","OBJECT_ID":"2020-006AQ","APOAPSIS":"548.038","ELEMENT_SET_NO":"999","MEAN_ELEMENT_THEORY":"SGP4","NORAD_CAT_ID":"45082","REF_FRAME":"TEME","EPOCH":"2023-05-17T21:31:55.170048","EPHEMERIS_TYPE":"0","TLE_LINE1":"1 45082U 20006AQ  23137.89716632  .00005442  00000-0  38395-3 0  9991","BSTAR":"0.00038395000000"}];
